NORAD_CAT_ID,OBJECT_NAME,OBJECT_TYPE,EPOCH,MEAN_MOTION,ECCENTRICITY,INCLINATION,RA_OF_ASC_NODE,ARG_OF_PERICENTER,MEAN_ANOMALY,BSTAR,MEAN_MOTION_DOT,MEAN_MOTION_DDOT,TLE_LINE0,TLE_LINE1,TLE_LINE2,SEMIMAJOR_AXIS,PERIOD,APOGEE,PERIGEE,DECAYED
55304.0,STARLINK-5318,PAYLOAD,2024-03-25 22:58:08,14.98315019,0.0002794,70.0011,23.8386,273.2214,86.8625,-0.00026332,-3.232e-05,0.0,0 STARLINK-5318,1 55304U 23010AM  24085.95704441 -.00003232  00000-0 -26332-3 0  9997,2 55304  70.0011  23.8386 0002794 273.2214  86.8625 14.98315019 66368,6950.239,96.108,574.046,570.162,0.0
55304.0,STARLINK-5318,PAYLOAD,2024-03-26 13:23:20,14.98329786,0.0002718,70.002,22.3241,265.91,94.1749,-0.00020862,-2.581e-05,0.0,0 STARLINK-5318,1 55304U 23010AM  24086.55787685 -.00002581  00000-0 -20862-3 0  9993,2 55304  70.0020  22.3241 0002718 265.9100  94.1749 14.98329786 66141,6950.194,96.107,573.948,570.169,0.0
55304.0,STARLINK-5318,PAYLOAD,2024-03-26 23:00:08,14.98328019,0.0002866,70.0005,21.3144,261.6869,98.3965,3.4102e-05,3.14e-06,0.0,0 STARLINK-5318,1 55304U 23010AM  24086.95843332  .00000314  00000-0  34102-4 0  9992,2 55304  70.0005  21.3144 0002866 261.6869  98.3965 14.98328019 66519,6950.199,96.107,574.056,570.072,0.0
55304.0,STARLINK-5318,PAYLOAD,2024-03-27 05:24:39,14.98340945,0.0002821,70.0008,20.6415,270.1176,89.966,0.00017463,1.992e-05,0.0,0 STARLINK-5318,1 55304U 23010AM  24087.22546151  .00001992  00000-0  17463-3 0  9995,2 55304  70.0008  20.6415 0002821 270.1176  89.9660 14.98340945 66242,6950.159,96.106,573.985,570.063,0.0
55304.0,STARLINK-5318,PAYLOAD,2024-03-27 13:25:20,14.9833923,0.0002784,70.0012,19.7989,266.5326,93.5514,4.2001e-05,4.08e-06,0.0,0 STARLINK-5318,1 55304U 23010AM  24087.55926430  .00000408  00000-0  42001-4 0  9991,2 55304  70.0012  19.7989 0002784 266.5326  93.5514 14.98339230 66600,6950.164,96.106,573.964,570.094,0.0
55304.0,STARLINK-5318,PAYLOAD,2024-03-27 21:26:01,14.9832177,0.0002645,70.0012,18.9576,267.7652,92.3205,0.00023934,2.763e-05,0.0,0 STARLINK-5318,1 55304U 23010AM  24087.89307223  .00002763  00000-0  23934-3 0  9990,2 55304  70.0012  18.9576 0002645 267.7652  92.3205 14.98321770 66349,6950.218,96.108,573.922,570.245,0.0
55304.0,STARLINK-5318,PAYLOAD,2024-03-28 05:26:41,14.98327655,0.0002552,70.0017,18.1171,265.9201,94.1667,0.00023363,2.696e-05,0.0,0 STARLINK-5318,1 55304U 23010AM  24088.22686977  .00002696  00000-0  23363-3 0  9995,2 55304  70.0017  18.1171 0002552 265.9201  94.1667 14.98327655 66704,6950.2,96.107,573.839,570.291,0.0
55304.0,STARLINK-5318,PAYLOAD,2024-03-28 21:28:02,14.9834051,0.0002267,70.0016,16.4339,273.2499,86.8401,-0.00014355,-1.806e-05,0.0,0 STARLINK-5318,1 55304U 23010AM  24088.89447183 -.00001806  00000-0 -14355-3 0  9997,2 55304  70.0016  16.4339 0002267 273.2499  86.8401 14.98340510 66499,6950.16,96.106,573.601,570.45,0.0
55304.0,STARLINK-5318,PAYLOAD,2024-03-28 23:04:10,14.98338803,0.0002337,70.0016,16.2656,272.4132,87.676,-0.00011326,-1.444e-05,0.0,0 STARLINK-5318,1 55304U 23010AM  24088.96123153 -.00001444  00000-0 -11326-3 0  9996,2 55304  70.0016  16.2656 0002337 272.4132  87.6760 14.98338803 66817,6950.166,96.106,573.655,570.406,0.0
55304.0,STARLINK-5318,PAYLOAD,2024-03-29 03:52:33,14.98362931,0.000221,70.002,15.7629,264.1182,95.9725,-0.00046113,-5.595e-05,0.0,0 STARLINK-5318,1 55304U 23010AM  24089.16150283 -.00005595  00000-0 -46113-3 0  9996,2 55304  70.0020  15.7629 0002210 264.1182  95.9725 14.98362931 66530,6950.091,96.105,573.492,570.42,0.0
55304.0,STARLINK-5318,PAYLOAD,2024-03-29 11:53:13,14.9838068,0.0002454,70.0027,14.9188,275.736,84.3519,-0.00077859,-9.382e-05,0.0,0 STARLINK-5318,1 55304U 23010AM  24089.49529542 -.00009382  00000-0 -77859-3 0  9999,2 55304  70.0027  14.9188 0002454 275.7360  84.3519 14.98380680 66897,6950.036,96.104,573.607,570.196,0.0
55304.0,STARLINK-5318,PAYLOAD,2024-03-29 21:30:02,14.98337029,0.0002391,70.0023,13.9088,271.1767,88.9118,-2.3952e-05,-3.79e-06,0.0,0 STARLINK-5318,1 55304U 23010AM  24089.89586488 -.00000379  00000-0 -23952-4 0  9998,2 55304  70.0023  13.9088 0002391 271.1767  88.9118 14.98337029 66649,6950.171,96.107,573.698,570.374,0.0
55304.0,STARLINK-5318,PAYLOAD,2024-03-29 23:06:10,14.98336612,0.0002412,70.0024,13.7405,271.379,88.7093,-3.3968e-05,-4.98e-06,0.0,0 STARLINK-5318,1 55304U 23010AM  24089.96262509 -.00000498  00000-0 -33968-4 0  9991,2 55304  70.0024  13.7405 0002412 271.3790  88.7093 14.98336612 66965,6950.172,96.107,573.714,570.361,0.0
55304.0,STARLINK-5318,PAYLOAD,2024-03-30 11:55:14,14.98363891,0.0002382,70.0027,12.3939,281.8244,78.2647,-0.00063398,-7.656e-05,0.0,0 STARLINK-5318,1 55304U 23010AM  24090.49669982 -.00007656  00000-0 -63398-3 0  9999,2 55304  70.0027  12.3939 0002382 281.8244  78.2647 14.98363891 66734,6950.088,96.105,573.609,570.298,0.0
55304.0,STARLINK-5318,PAYLOAD,2024-03-30 21:32:04,14.98327168,0.0002339,70.0025,11.3859,267.0477,93.0415,-5.1305e-05,-7.05e-06,0.0,0 STARLINK-5318,1 55304U 23010AM  24090.89727045 -.00000705  00000-0 -51305-4 0  9992,2 55304  70.0025  11.3859 0002339 267.0477  93.0415 14.98327168 66799,6950.202,96.107,573.692,570.441,0.0
55304.0,STARLINK-5318,PAYLOAD,2024-03-30 23:08:12,14.9832671,0.0002336,70.0025,11.2169,268.4822,91.607,-5.8392e-05,-7.89e-06,0.0,0 STARLINK-5318,1 55304U 23010AM  24090.96403103 -.00000789  00000-0 -58392-4 0  9991,2 55304  70.0025  11.2169 0002336 268.4822  91.6070 14.98326710 67118,6950.203,96.107,573.692,570.444,0.0
55304.0,STARLINK-5318,PAYLOAD,2024-03-31 03:56:40,14.98268383,0.0002995,70.0011,10.7115,264.4798,95.6019,-0.00078517,-9.434e-05,0.0,0 STARLINK-5318,1 55304U 23010AM  24091.16436147 -.00009434  00000-0 -78517-3 0  9994,2 55304  70.0011  10.7115 0002995 264.4798  95.6019 14.98268383 66833,6950.383,96.111,574.33,570.167,0.0
55304.0,STARLINK-5318,PAYLOAD,2024-03-31 11:57:16,14.98333474,0.0002926,70.0016,9.8685,268.9889,91.0935,-5.9107e-05,-7.98e-06,0.0,0 STARLINK-5318,1 55304U 23010AM  24091.49810512 -.00000798  00000-0 -59107-4 0  9991,2 55304  70.0016   9.8685 0002926 268.9889  91.0935 14.98333474 66889,6950.182,96.107,574.081,570.014,0.0
55304.0,STARLINK-5318,PAYLOAD,2024-03-31 21:34:04,14.98332168,0.000295,70.001,8.8585,271.6719,88.4102,4.1904e-05,4.07e-06,0.0,0 STARLINK-5318,1 55304U 23010AM  24091.89866276  .00000407  00000-0  41904-4 0  9994,2 55304  70.0010   8.8585 0002950 271.6719  88.4102 14.98332168 67258,6950.186,96.107,574.101,570.001,0.0
55304.0,STARLINK-5318,PAYLOAD,2024-04-01 03:58:36,14.98341549,0.0002882,70.0011,8.1859,267.7374,92.3455,6.5056e-05,6.84e-06,0.0,0 STARLINK-5318,1 55304U 23010AM  24092.16569499  .00000684  00000-0  65056-4 0  9993,2 55304  70.0011   8.1859 0002882 267.7374  92.3455 14.98341549 66980,6950.157,96.106,574.025,570.019,0.0
55304.0,STARLINK-5318,PAYLOAD,2024-04-01 11:59:17,14.98329187,0.0002425,70.0023,7.3452,279.7169,80.3716,1.098e-05,3.8e-07,0.0,0 STARLINK-5318,1 55304U 23010AM  24092.49950527  .00000038  00000-0  10980-4 0  9994,2 55304  70.0023   7.3452 0002425 279.7169  80.3716 14.98329187 67039,6950.195,96.107,573.746,570.375,0.0
55304.0,STARLINK-5318,PAYLOAD,2024-04-02 04:00:38,14.98322843,0.0002907,70.001,5.661,272.0532,88.0294,-4.8792e-06,-1.51e-06,0.0,0 STARLINK-5318,1 55304U 23010AM  24093.16710972 -.00000151  00000-0 -48792-5 0  9998,2 55304  70.0010   5.6610 0002907 272.0532  88.0294 14.98322843 67136,6950.215,96.107,574.1,570.06,0.0
55304.0,STARLINK-5318,PAYLOAD,2024-04-02 12:01:18,14.98326838,0.0002903,70.0009,4.8196,270.1852,89.8974,-2.325e-05,-3.7e-06,0.0,0 STARLINK-5318,1 55304U 23010AM  24093.50090837 -.00000370  00000-0 -23250-4 0  9991,2 55304  70.0009   4.8196 0002903 270.1852  89.8974 14.98326838 67495,6950.203,96.107,574.085,570.05,0.0
55304.0,STARLINK-5318,PAYLOAD,2024-04-02 21:38:06,14.98329369,0.0003069,70.0011,3.8097,271.1784,88.9023,-2.318e-05,-3.7e-06,0.0,0 STARLINK-5318,1 55304U 23010AM  24093.90146654 -.00000370  00000-0 -23180-4 0  9996,2 55304  70.0011   3.8097 0003069 271.1784  88.9023 14.98329369 67550,6950.195,96.107,574.193,569.927,0.0
55304.0,STARLINK-5318,PAYLOAD,2024-04-03 04:02:38,14.98332213,0.0003026,70.0009,3.1364,271.5386,88.5427,-1.6349e-05,-2.88e-06,0.0,0 STARLINK-5318,1 55304U 23010AM  24094.16850451 -.00000288  00000-0 -16349-4 0  9999,2 55304  70.0009   3.1364 0003026 271.5386  88.5427 14.98332213 67288,6950.186,96.107,574.154,569.948,0.0
55304.0,STARLINK-5318,PAYLOAD,2024-04-03 20:03:59,14.98326478,0.0003043,70.0008,1.4533,272.4556,87.6255,7.2027e-05,7.66e-06,0.0,0 STARLINK-5318,1 55304U 23010AM  24094.83610506  .00000766  00000-0  72027-4 0  9992,2 55304  70.0008   1.4533 0003043 272.4556  87.6255 14.98326478 67694,6950.204,96.107,574.184,569.954,0.0
55304.0,STARLINK-5318,PAYLOAD,2024-04-04 04:04:39,14.98329784,0.0003037,70.0008,0.6118,272.2957,87.7855,8.925e-05,9.72e-06,0.0,0 STARLINK-5318,1 55304U 23010AM  24095.16990281  .00000972  00000-0  89250-4 0  9995,2 55304  70.0008   0.6118 0003037 272.2957  87.7855 14.98329784 67432,6950.194,96.107,574.169,569.948,0.0
55304.0,STARLINK-5318,PAYLOAD,2024-04-04 10:29:12,14.98327662,0.0003011,70.0009,359.9384,272.3519,87.7296,4.1057e-05,3.97e-06,0.0,0 STARLINK-5318,1 55304U 23010AM  24095.43694553  .00000397  00000-0  41057-4 0  9992,2 55304  70.0009 359.9384 0003011 272.3519  87.7296 14.98327662 67785,6950.2,96.107,574.158,569.972,0.0
55304.0,STARLINK-5318,PAYLOAD,2024-04-04 21:42:08,14.98327369,0.0002973,70.001,358.7602,269.8607,90.2212,-3.64e-05,-5.27e-06,0.0,0 STARLINK-5318,1 55304U 23010AM  24095.90426845 -.00000527  00000-0 -36400-4 0  9994,2 55304  70.0010 358.7602 0002973 269.8607  90.2212 14.98327369 67851,6950.201,96.107,574.132,570.0,0.0
55304.0,STARLINK-5318,PAYLOAD,2024-04-05 10:31:13,14.98331454,0.0002806,70.0011,357.4131,273.7876,86.2962,1.134e-07,-9.2e-07,0.0,0 STARLINK-5318,1 55304U 23010AM  24096.43834507 -.00000092  00000-0  11340-6 0  9995,2 55304  70.0011 357.4131 0002806 273.7876  86.2962 14.98331454 67624,6950.188,96.107,574.004,570.103,0.0
